GOES 1 (SMS-C)          
1 08366U 75100A   26061.63561291 -.00000008  00000+0  00000+0 0  9991
2 08366   4.8791 278.7710 0005435 359.6060 350.4226  1.00237062183995
GOES 2                  
1 10061U 77048A   26061.95708708 -.00000294  00000+0  00000+0 0  9997
2 10061   6.6726 294.2305 0013885  47.5368 283.6982  0.99398073 45218
GOES 3                  
1 10953U 78062A   26061.65245995 -.00000252  00000+0  00000+0 0  9999
2 10953   7.1427 300.0597 0002864 354.3803 265.0381  0.99365793127478
GOES 4                  
1 11964U 80074A   26061.36235016 -.00000263  00000+0  00000+0 0  9991
2 11964   8.2166 303.7455 0032070 102.9872 199.1197  0.99231820126374
GOES 5                  
1 12472U 81049A   26061.14287171 -.00000208  00000+0  00000+0 0  9993
2 12472   9.5499 316.3565 0004675 336.5954 190.2590  1.00211947121779
GOES 6                  
1 14050U 83041A   26061.25939562 -.00000083  00000+0  00000+0 0  9992
2 14050  10.3608 321.9137 0002366 306.2017 236.2436  1.00217609214944
GOES 7                  
1 17561U 87022A   26061.34835931  .00000062  00000+0  00000+0 0  9996
2 17561  13.0226 338.3886 0003936  14.4711 162.2775  0.99894055125898
GOES 8                  
1 23051U 94022A   26061.62304617 -.00000216  00000+0  00000+0 0  9990
2 23051  14.3389  14.4835 0004974  13.9489 173.0018  0.98907908123077
GOES 9                  
1 23581U 95025A   26060.29183885 -.00000159  00000+0  00000+0 0  9992
2 23581  13.8669  15.3357 0003713 211.3457 333.8383  0.98799667111695
GOES 10                 
1 24786U 97019A   26061.83864140 -.00000136  00000+0  00000+0 0  9991
2 24786  13.0022  21.8585 0031289 239.1480 304.0616  0.99122632105017
GOES 11                 
1 26352U 00022A   26061.85954840 -.00000149  00000+0  00000+0 0  9993
2 26352  11.5769  47.4587 0005953 254.3169  99.1899  0.99041398 51415
GOES 12                 
1 26871U 01031A   26060.79399304 -.00000244  00000+0  00000+0 0  9996
2 26871  11.9899  38.1650 0008765 295.5256  62.6562  0.99138222 89691
EWS-G1 (GOES 13)        
1 29155U 06018A   26061.63916626  .00000011  00000+0  00000+0 0  9991
2 29155   4.2564  77.7241 0061991 272.8652 298.2266  0.98784680 42192
GOES 14                 
1 35491U 09033A   26061.80600331  .00000114  00000+0  00000+0 0  9997
2 35491   1.4148  84.4440 0002164 295.3222 273.6553  1.00123439  5520
EWS-G2 (GOES 15)        
1 36411U 10008A   26061.86055566  .00000005  00000+0  00000+0 0  9993
2 36411   1.0052  85.1762 0001654  24.0248  64.7263  1.00269153 58570
GOES 16                 
1 41866U 16071A   26061.63873293 -.00000108  00000+0  00000+0 0  9994
2 41866   0.1427  90.2616 0002601 216.0510 339.3388  1.00271558 34035
GOES 17                 
1 43226U 18022A   26061.85564839 -.00000198  00000+0  00000+0 0  9990
2 43226   0.6641  87.5864 0002331 219.2912  72.2783  1.00270461 29358
