[{"OBJECT_NAME":"GOES 1 (SMS-C)","OBJECT_ID":"1975-100A","EPOCH":"2026-03-02T15:15:16.955424","MEAN_MOTION":1.00237062,"ECCENTRICITY":0.0005435,"INCLINATION":4.8791,"RA_OF_ASC_NODE":278.771,"ARG_OF_PERICENTER":359.606,"MEAN_ANOMALY":350.4226,"EPHEMERIS_TYPE":0,"CLASSIFICATION_TYPE":"U","NORAD_CAT_ID":8366,"ELEMENT_SET_NO":999,"REV_AT_EPOCH":18399,"BSTAR":0,"MEAN_MOTION_DOT":-8.0e-8,"MEAN_MOTION_DDOT":0},{"OBJECT_NAME":"GOES 2","OBJECT_ID":"1977-048A","EPOCH":"2026-03-02T22:58:12.323712","MEAN_MOTION":0.99398073,"ECCENTRICITY":0.00138853,"INCLINATION":6.6726,"RA_OF_ASC_NODE":294.2305,"ARG_OF_PERICENTER":47.5368,"MEAN_ANOMALY":283.6982,"EPHEMERIS_TYPE":0,"CLASSIFICATION_TYPE":"U","NORAD_CAT_ID":10061,"ELEMENT_SET_NO":999,"REV_AT_EPOCH":4521,"BSTAR":0,"MEAN_MOTION_DOT":-2.94e-6,"MEAN_MOTION_DDOT":0},{"OBJECT_NAME":"GOES 3","OBJECT_ID":"1978-062A","EPOCH":"2026-03-02T15:39:32.539680","MEAN_MOTION":0.99365793,"ECCENTRICITY":0.0002864,"INCLINATION":7.1427,"RA_OF_ASC_NODE":300.0597,"ARG_OF_PERICENTER":354.3803,"MEAN_ANOMALY":265.0381,"EPHEMERIS_TYPE":0,"CLASSIFICATION_TYPE":"U","NORAD_CAT_ID":10953,"ELEMENT_SET_NO":999,"REV_AT_EPOCH":12747,"BSTAR":0,"MEAN_MOTION_DOT":-2.52e-6,"MEAN_MOTION_DDOT":0},{"OBJECT_NAME":"GOES 4","OBJECT_ID":"1980-074A","EPOCH":"2026-03-02T08:41:47.053824","MEAN_MOTION":0.9923182,"ECCENTRICITY":0.00320707,"INCLINATION":8.2166,"RA_OF_ASC_NODE":303.7455,"ARG_OF_PERICENTER":102.9872,"MEAN_ANOMALY":199.1197,"EPHEMERIS_TYPE":0,"CLASSIFICATION_TYPE":"U","NORAD_CAT_ID":11964,"ELEMENT_SET_NO":999,"REV_AT_EPOCH":12637,"BSTAR":0,"MEAN_MOTION_DOT":-2.63e-6,"MEAN_MOTION_DDOT":0},{"OBJECT_NAME":"GOES 5","OBJECT_ID":"1981-049A","EPOCH":"2026-03-02T03:25:44.115744","MEAN_MOTION":1.00211947,"ECCENTRICITY":0.00046757,"INCLINATION":9.5499,"RA_OF_ASC_NODE":316.3565,"ARG_OF_PERICENTER":336.5954,"MEAN_ANOMALY":190.259,"EPHEMERIS_TYPE":0,"CLASSIFICATION_TYPE":"U","NORAD_CAT_ID":12472,"ELEMENT_SET_NO":999,"REV_AT_EPOCH":12177,"BSTAR":0,"MEAN_MOTION_DOT":-2.08e-6,"MEAN_MOTION_DDOT":0},{"OBJECT_NAME":"GOES 6","OBJECT_ID":"1983-041A","EPOCH":"2026-03-02T06:13:31.781568","MEAN_MOTION":1.00217609,"ECCENTRICITY":0.00023668,"INCLINATION":10.3608,"RA_OF_ASC_NODE":321.9137,"ARG_OF_PERICENTER":306.2017,"MEAN_ANOMALY":236.2436,"EPHEMERIS_TYPE":0,"CLASSIFICATION_TYPE":"U","NORAD_CAT_ID":14050,"ELEMENT_SET_NO":999,"REV_AT_EPOCH":21494,"BSTAR":0,"MEAN_MOTION_DOT":-8.3e-7,"MEAN_MOTION_DDOT":0},{"OBJECT_NAME":"GOES 7","OBJECT_ID":"1987-022A","EPOCH":"2026-03-02T08:21:38.244384","MEAN_MOTION":0.99894055,"ECCENTRICITY":0.00039365,"INCLINATION":13.0226,"RA_OF_ASC_NODE":338.3886,"ARG_OF_PERICENTER":14.4711,"MEAN_ANOMALY":162.2775,"EPHEMERIS_TYPE":0,"CLASSIFICATION_TYPE":"U","NORAD_CAT_ID":17561,"ELEMENT_SET_NO":999,"REV_AT_EPOCH":12589,"BSTAR":0,"MEAN_MOTION_DOT":6.2e-7,"MEAN_MOTION_DDOT":0},{"OBJECT_NAME":"GOES 8","OBJECT_ID":"1994-022A","EPOCH":"2026-03-02T14:57:11.189088","MEAN_MOTION":0.98907908,"ECCENTRICITY":0.00049747,"INCLINATION":14.3389,"RA_OF_ASC_NODE":14.4835,"ARG_OF_PERICENTER":13.9489,"MEAN_ANOMALY":173.0018,"EPHEMERIS_TYPE":0,"CLASSIFICATION_TYPE":"U","NORAD_CAT_ID":23051,"ELEMENT_SET_NO":999,"REV_AT_EPOCH":12307,"BSTAR":0,"MEAN_MOTION_DOT":-2.16e-6,"MEAN_MOTION_DDOT":0},{"OBJECT_NAME":"GOES 9","OBJECT_ID":"1995-025A","EPOCH":"2026-03-01T07:00:14.876640","MEAN_MOTION":0.98799667,"ECCENTRICITY":0.0003713,"INCLINATION":13.8669,"RA_OF_ASC_NODE":15.3357,"ARG_OF_PERICENTER":211.3457,"MEAN_ANOMALY":333.8383,"EPHEMERIS_TYPE":0,"CLASSIFICATION_TYPE":"U","NORAD_CAT_ID":23581,"ELEMENT_SET_NO":999,"REV_AT_EPOCH":11169,"BSTAR":0,"MEAN_MOTION_DOT":-1.59e-6,"MEAN_MOTION_DDOT":0},{"OBJECT_NAME":"GOES 10","OBJECT_ID":"1997-019A","EPOCH":"2026-03-02T20:07:38.616960","MEAN_MOTION":0.99122632,"ECCENTRICITY":0.00312898,"INCLINATION":13.0022,"RA_OF_ASC_NODE":21.8585,"ARG_OF_PERICENTER":239.148,"MEAN_ANOMALY":304.0616,"EPHEMERIS_TYPE":0,"CLASSIFICATION_TYPE":"U","NORAD_CAT_ID":24786,"ELEMENT_SET_NO":999,"REV_AT_EPOCH":10501,"BSTAR":0,"MEAN_MOTION_DOT":-1.36e-6,"MEAN_MOTION_DDOT":0},{"OBJECT_NAME":"GOES 11","OBJECT_ID":"2000-022A","EPOCH":"2026-03-02T20:37:44.981760","MEAN_MOTION":0.99041398,"ECCENTRICITY":0.00059538,"INCLINATION":11.5769,"RA_OF_ASC_NODE":47.4587,"ARG_OF_PERICENTER":254.3169,"MEAN_ANOMALY":99.1899,"EPHEMERIS_TYPE":0,"CLASSIFICATION_TYPE":"U","NORAD_CAT_ID":26352,"ELEMENT_SET_NO":999,"REV_AT_EPOCH":5141,"BSTAR":0,"MEAN_MOTION_DOT":-1.49e-6,"MEAN_MOTION_DDOT":0},{"OBJECT_NAME":"GOES 12","OBJECT_ID":"2001-031A","EPOCH":"2026-03-01T19:03:20.998656","MEAN_MOTION":0.99138222,"ECCENTRICITY":0.00087659,"INCLINATION":11.9899,"RA_OF_ASC_NODE":38.165,"ARG_OF_PERICENTER":295.5256,"MEAN_ANOMALY":62.6562,"EPHEMERIS_TYPE":0,"CLASSIFICATION_TYPE":"U","NORAD_CAT_ID":26871,"ELEMENT_SET_NO":999,"REV_AT_EPOCH":8969,"BSTAR":0,"MEAN_MOTION_DOT":-2.44e-6,"MEAN_MOTION_DDOT":0},{"OBJECT_NAME":"EWS-G1 (GOES 13)","OBJECT_ID":"2006-018A","EPOCH":"2026-03-02T15:20:23.964864","MEAN_MOTION":0.9878468,"ECCENTRICITY":0.00619917,"INCLINATION":4.2564,"RA_OF_ASC_NODE":77.7241,"ARG_OF_PERICENTER":272.8652,"MEAN_ANOMALY":298.2266,"EPHEMERIS_TYPE":0,"CLASSIFICATION_TYPE":"U","NORAD_CAT_ID":29155,"ELEMENT_SET_NO":999,"REV_AT_EPOCH":4219,"BSTAR":0,"MEAN_MOTION_DOT":1.1e-7,"MEAN_MOTION_DDOT":0},{"OBJECT_NAME":"GOES 14","OBJECT_ID":"2009-033A","EPOCH":"2026-03-02T19:20:38.685984","MEAN_MOTION":1.00123439,"ECCENTRICITY":0.00021641,"INCLINATION":1.4148,"RA_OF_ASC_NODE":84.444,"ARG_OF_PERICENTER":295.3222,"MEAN_ANOMALY":273.6553,"EPHEMERIS_TYPE":0,"CLASSIFICATION_TYPE":"U","NORAD_CAT_ID":35491,"ELEMENT_SET_NO":999,"REV_AT_EPOCH":552,"BSTAR":0,"MEAN_MOTION_DOT":1.14e-6,"MEAN_MOTION_DDOT":0},{"OBJECT_NAME":"EWS-G2 (GOES 15)","OBJECT_ID":"2010-008A","EPOCH":"2026-03-02T20:39:12.009024","MEAN_MOTION":1.00269153,"ECCENTRICITY":0.00016548,"INCLINATION":1.0052,"RA_OF_ASC_NODE":85.1762,"ARG_OF_PERICENTER":24.0248,"MEAN_ANOMALY":64.7263,"EPHEMERIS_TYPE":0,"CLASSIFICATION_TYPE":"U","NORAD_CAT_ID":36411,"ELEMENT_SET_NO":999,"REV_AT_EPOCH":5857,"BSTAR":0,"MEAN_MOTION_DOT":5.0e-8,"MEAN_MOTION_DDOT":0},{"OBJECT_NAME":"GOES 16","OBJECT_ID":"2016-071A","EPOCH":"2026-03-02T15:19:46.525152","MEAN_MOTION":1.00271558,"ECCENTRICITY":0.00026017,"INCLINATION":0.1427,"RA_OF_ASC_NODE":90.2616,"ARG_OF_PERICENTER":216.051,"MEAN_ANOMALY":339.3388,"EPHEMERIS_TYPE":0,"CLASSIFICATION_TYPE":"U","NORAD_CAT_ID":41866,"ELEMENT_SET_NO":999,"REV_AT_EPOCH":3403,"BSTAR":0,"MEAN_MOTION_DOT":-1.08e-6,"MEAN_MOTION_DDOT":0},{"OBJECT_NAME":"GOES 17","OBJECT_ID":"2018-022A","EPOCH":"2026-03-02T20:32:08.020896","MEAN_MOTION":1.00270461,"ECCENTRICITY":0.00023319,"INCLINATION":0.6641,"RA_OF_ASC_NODE":87.5864,"ARG_OF_PERICENTER":219.2912,"MEAN_ANOMALY":72.2783,"EPHEMERIS_TYPE":0,"CLASSIFICATION_TYPE":"U","NORAD_CAT_ID":43226,"ELEMENT_SET_NO":999,"REV_AT_EPOCH":2935,"BSTAR":0,"MEAN_MOTION_DOT":-1.98e-6,"MEAN_MOTION_DDOT":0}]
